STARLINK-36488          
1 67306U 26002B   26012.83337963 -.01390636  56589-3 -35544-2 0  9994
2 67306  42.9982 289.3162 0001657 266.4875 264.7835 15.94480823  2434
STARLINK-36481          
1 67307U 26002C   26012.83337963 -.01407459  57916-3 -35760-2 0  9992
2 67307  42.9982 289.3056 0001611 266.1246 269.4384 15.94594648  2438
STARLINK-36449          
1 67308U 26002D   26012.83337963 -.01416967  58669-3 -35894-2 0  9991
2 67308  42.9982 289.3006 0001665 264.9989 272.5658 15.94652097  2491
STARLINK-36482          
1 67309U 26002E   26012.83337963 -.01448933  61295-3 -36153-2 0  9998
2 67309  42.9985 289.2745 0001681 263.8901 284.1872 15.94938158  2430
STARLINK-36491          
1 67310U 26002F   26012.83337963 -.01375926  55520-3 -35086-2 0  9999
2 67310  42.9984 289.3096 0001606 260.2652 273.6982 15.94521956  2431
STARLINK-36495          
1 67311U 26002G   26012.83337963 -.01392858  56870-3 -35218-2 0  9999
2 67311  42.9984 289.2944 0001624 262.0958 277.8117 15.94683014  2599
STARLINK-36485          
1 67312U 26002H   26012.83337963 -.01438443  60387-3 -36196-2 0  9995
2 67312  42.9984 289.2881 0001634 263.2480 279.1342 15.94779272  2434
STARLINK-36445          
1 67313U 26002J   26012.83337963 -.01439884  60524-3 -36149-2 0  9997
2 67313  42.9981 289.2844 0001675 262.1746 281.5865 15.94822034  2598
STARLINK-36476          
1 67314U 26002K   26012.83337963 -.01443977  60879-3 -36131-2 0  9990
2 67314  42.9985 289.2787 0001602 266.1998 280.0271 15.94885324  2431
STARLINK-36463          
1 67315U 26002L   26012.83337963 -.01453254  61665-3 -36155-2 0  9990
2 67315  42.9982 289.2683 0001578 258.9416 291.1691 15.94993209  2497
STARLINK-36461          
1 67316U 26002M   26012.83337963 -.01463457  62506-3 -36275-2 0  9995
2 67316  42.9982 289.2617 0001538 265.4857 287.2952 15.95063056  2599
STARLINK-36450          
1 67317U 26002N   26012.83337963 -.01469254  62997-3 -36310-2 0  9991
2 67317  42.9983 289.2567 0001618 259.1192 295.6381 15.95119267  2591
