CCSDS_OMM_VERS = 2.0
CREATION_DATE  = 
ORIGINATOR     = 

OBJECT_NAME    = STARLINK-36488
OBJECT_ID      = 2026-002B
CENTER_NAME    = EARTH
REF_FRAME      = TEME
TIME_SYSTEM    = UTC
MEAN_ELEMENT_THEORY = SGP/SGP4

EPOCH          = 2026-01-12T20:00:04.000032
MEAN_MOTION    = 15.94480823
ECCENTRICITY   = .0001657
INCLINATION    = 42.9982
RA_OF_ASC_NODE = 289.3162
ARG_OF_PERICENTER = 266.4875
MEAN_ANOMALY   = 264.7835

EPHEMERIS_TYPE = 0
CLASSIFICATION_TYPE = U
NORAD_CAT_ID   = 67306
ELEMENT_SET_NO = 999
REV_AT_EPOCH   = 243
BSTAR          = -.35544E-2
MEAN_MOTION_DOT = -.1390636E-1
MEAN_MOTION_DDOT = .56589E-3

CCSDS_OMM_VERS = 2.0
CREATION_DATE  = 
ORIGINATOR     = 

OBJECT_NAME    = STARLINK-36481
OBJECT_ID      = 2026-002C
CENTER_NAME    = EARTH
REF_FRAME      = TEME
TIME_SYSTEM    = UTC
MEAN_ELEMENT_THEORY = SGP/SGP4

EPOCH          = 2026-01-12T20:00:04.000032
MEAN_MOTION    = 15.94594648
ECCENTRICITY   = .0001611
INCLINATION    = 42.9982
RA_OF_ASC_NODE = 289.3056
ARG_OF_PERICENTER = 266.1246
MEAN_ANOMALY   = 269.4384

EPHEMERIS_TYPE = 0
CLASSIFICATION_TYPE = U
NORAD_CAT_ID   = 67307
ELEMENT_SET_NO = 999
REV_AT_EPOCH   = 243
BSTAR          = -.3576E-2
MEAN_MOTION_DOT = -.1407459E-1
MEAN_MOTION_DDOT = .57916E-3

CCSDS_OMM_VERS = 2.0
CREATION_DATE  = 
ORIGINATOR     = 

OBJECT_NAME    = STARLINK-36449
OBJECT_ID      = 2026-002D
CENTER_NAME    = EARTH
REF_FRAME      = TEME
TIME_SYSTEM    = UTC
MEAN_ELEMENT_THEORY = SGP/SGP4

EPOCH          = 2026-01-12T20:00:04.000032
MEAN_MOTION    = 15.94652097
ECCENTRICITY   = .0001665
INCLINATION    = 42.9982
RA_OF_ASC_NODE = 289.3006
ARG_OF_PERICENTER = 264.9989
MEAN_ANOMALY   = 272.5658

EPHEMERIS_TYPE = 0
CLASSIFICATION_TYPE = U
NORAD_CAT_ID   = 67308
ELEMENT_SET_NO = 999
REV_AT_EPOCH   = 249
BSTAR          = -.35894E-2
MEAN_MOTION_DOT = -.1416967E-1
MEAN_MOTION_DDOT = .58669E-3

CCSDS_OMM_VERS = 2.0
CREATION_DATE  = 
ORIGINATOR     = 

OBJECT_NAME    = STARLINK-36482
OBJECT_ID      = 2026-002E
CENTER_NAME    = EARTH
REF_FRAME      = TEME
TIME_SYSTEM    = UTC
MEAN_ELEMENT_THEORY = SGP/SGP4

EPOCH          = 2026-01-12T20:00:04.000032
MEAN_MOTION    = 15.94938158
ECCENTRICITY   = .0001681
INCLINATION    = 42.9985
RA_OF_ASC_NODE = 289.2745
ARG_OF_PERICENTER = 263.8901
MEAN_ANOMALY   = 284.1872

EPHEMERIS_TYPE = 0
CLASSIFICATION_TYPE = U
NORAD_CAT_ID   = 67309
ELEMENT_SET_NO = 999
REV_AT_EPOCH   = 243
BSTAR          = -.36153E-2
MEAN_MOTION_DOT = -.1448933E-1
MEAN_MOTION_DDOT = .61295E-3

CCSDS_OMM_VERS = 2.0
CREATION_DATE  = 
ORIGINATOR     = 

OBJECT_NAME    = STARLINK-36491
OBJECT_ID      = 2026-002F
CENTER_NAME    = EARTH
REF_FRAME      = TEME
TIME_SYSTEM    = UTC
MEAN_ELEMENT_THEORY = SGP/SGP4

EPOCH          = 2026-01-12T20:00:04.000032
MEAN_MOTION    = 15.94521956
ECCENTRICITY   = .0001606
INCLINATION    = 42.9984
RA_OF_ASC_NODE = 289.3096
ARG_OF_PERICENTER = 260.2652
MEAN_ANOMALY   = 273.6982

EPHEMERIS_TYPE = 0
CLASSIFICATION_TYPE = U
NORAD_CAT_ID   = 67310
ELEMENT_SET_NO = 999
REV_AT_EPOCH   = 243
BSTAR          = -.35086E-2
MEAN_MOTION_DOT = -.1375926E-1
MEAN_MOTION_DDOT = .5552E-3

CCSDS_OMM_VERS = 2.0
CREATION_DATE  = 
ORIGINATOR     = 

OBJECT_NAME    = STARLINK-36495
OBJECT_ID      = 2026-002G
CENTER_NAME    = EARTH
REF_FRAME      = TEME
TIME_SYSTEM    = UTC
MEAN_ELEMENT_THEORY = SGP/SGP4

EPOCH          = 2026-01-12T20:00:04.000032
MEAN_MOTION    = 15.94683014
ECCENTRICITY   = .0001624
INCLINATION    = 42.9984
RA_OF_ASC_NODE = 289.2944
ARG_OF_PERICENTER = 262.0958
MEAN_ANOMALY   = 277.8117

EPHEMERIS_TYPE = 0
CLASSIFICATION_TYPE = U
NORAD_CAT_ID   = 67311
ELEMENT_SET_NO = 999
REV_AT_EPOCH   = 259
BSTAR          = -.35218E-2
MEAN_MOTION_DOT = -.1392858E-1
MEAN_MOTION_DDOT = .5687E-3

CCSDS_OMM_VERS = 2.0
CREATION_DATE  = 
ORIGINATOR     = 

OBJECT_NAME    = STARLINK-36485
OBJECT_ID      = 2026-002H
CENTER_NAME    = EARTH
REF_FRAME      = TEME
TIME_SYSTEM    = UTC
MEAN_ELEMENT_THEORY = SGP/SGP4

EPOCH          = 2026-01-12T20:00:04.000032
MEAN_MOTION    = 15.94779272
ECCENTRICITY   = .0001634
INCLINATION    = 42.9984
RA_OF_ASC_NODE = 289.2881
ARG_OF_PERICENTER = 263.2480
MEAN_ANOMALY   = 279.1342

EPHEMERIS_TYPE = 0
CLASSIFICATION_TYPE = U
NORAD_CAT_ID   = 67312
ELEMENT_SET_NO = 999
REV_AT_EPOCH   = 243
BSTAR          = -.36196E-2
MEAN_MOTION_DOT = -.1438443E-1
MEAN_MOTION_DDOT = .60387E-3

CCSDS_OMM_VERS = 2.0
CREATION_DATE  = 
ORIGINATOR     = 

OBJECT_NAME    = STARLINK-36445
OBJECT_ID      = 2026-002J
CENTER_NAME    = EARTH
REF_FRAME      = TEME
TIME_SYSTEM    = UTC
MEAN_ELEMENT_THEORY = SGP/SGP4

EPOCH          = 2026-01-12T20:00:04.000032
MEAN_MOTION    = 15.94822034
ECCENTRICITY   = .0001675
INCLINATION    = 42.9981
RA_OF_ASC_NODE = 289.2844
ARG_OF_PERICENTER = 262.1746
MEAN_ANOMALY   = 281.5865

EPHEMERIS_TYPE = 0
CLASSIFICATION_TYPE = U
NORAD_CAT_ID   = 67313
ELEMENT_SET_NO = 999
REV_AT_EPOCH   = 259
BSTAR          = -.36149E-2
MEAN_MOTION_DOT = -.1439884E-1
MEAN_MOTION_DDOT = .60524E-3

CCSDS_OMM_VERS = 2.0
CREATION_DATE  = 
ORIGINATOR     = 

OBJECT_NAME    = STARLINK-36476
OBJECT_ID      = 2026-002K
CENTER_NAME    = EARTH
REF_FRAME      = TEME
TIME_SYSTEM    = UTC
MEAN_ELEMENT_THEORY = SGP/SGP4

EPOCH          = 2026-01-12T20:00:04.000032
MEAN_MOTION    = 15.94885324
ECCENTRICITY   = .0001602
INCLINATION    = 42.9985
RA_OF_ASC_NODE = 289.2787
ARG_OF_PERICENTER = 266.1998
MEAN_ANOMALY   = 280.0271

EPHEMERIS_TYPE = 0
CLASSIFICATION_TYPE = U
NORAD_CAT_ID   = 67314
ELEMENT_SET_NO = 999
REV_AT_EPOCH   = 243
BSTAR          = -.36131E-2
MEAN_MOTION_DOT = -.1443977E-1
MEAN_MOTION_DDOT = .60879E-3

CCSDS_OMM_VERS = 2.0
CREATION_DATE  = 
ORIGINATOR     = 

OBJECT_NAME    = STARLINK-36463
OBJECT_ID      = 2026-002L
CENTER_NAME    = EARTH
REF_FRAME      = TEME
TIME_SYSTEM    = UTC
MEAN_ELEMENT_THEORY = SGP/SGP4

EPOCH          = 2026-01-12T20:00:04.000032
MEAN_MOTION    = 15.94993209
ECCENTRICITY   = .0001578
INCLINATION    = 42.9982
RA_OF_ASC_NODE = 289.2683
ARG_OF_PERICENTER = 258.9416
MEAN_ANOMALY   = 291.1691

EPHEMERIS_TYPE = 0
CLASSIFICATION_TYPE = U
NORAD_CAT_ID   = 67315
ELEMENT_SET_NO = 999
REV_AT_EPOCH   = 249
BSTAR          = -.36155E-2
MEAN_MOTION_DOT = -.1453254E-1
MEAN_MOTION_DDOT = .61665E-3

CCSDS_OMM_VERS = 2.0
CREATION_DATE  = 
ORIGINATOR     = 

OBJECT_NAME    = STARLINK-36461
OBJECT_ID      = 2026-002M
CENTER_NAME    = EARTH
REF_FRAME      = TEME
TIME_SYSTEM    = UTC
MEAN_ELEMENT_THEORY = SGP/SGP4

EPOCH          = 2026-01-12T20:00:04.000032
MEAN_MOTION    = 15.95063056
ECCENTRICITY   = .0001538
INCLINATION    = 42.9982
RA_OF_ASC_NODE = 289.2617
ARG_OF_PERICENTER = 265.4857
MEAN_ANOMALY   = 287.2952

EPHEMERIS_TYPE = 0
CLASSIFICATION_TYPE = U
NORAD_CAT_ID   = 67316
ELEMENT_SET_NO = 999
REV_AT_EPOCH   = 259
BSTAR          = -.36275E-2
MEAN_MOTION_DOT = -.1463457E-1
MEAN_MOTION_DDOT = .62506E-3

CCSDS_OMM_VERS = 2.0
CREATION_DATE  = 
ORIGINATOR     = 

OBJECT_NAME    = STARLINK-36450
OBJECT_ID      = 2026-002N
CENTER_NAME    = EARTH
REF_FRAME      = TEME
TIME_SYSTEM    = UTC
MEAN_ELEMENT_THEORY = SGP/SGP4

EPOCH          = 2026-01-12T20:00:04.000032
MEAN_MOTION    = 15.95119267
ECCENTRICITY   = .0001618
INCLINATION    = 42.9983
RA_OF_ASC_NODE = 289.2567
ARG_OF_PERICENTER = 259.1192
MEAN_ANOMALY   = 295.6381

EPHEMERIS_TYPE = 0
CLASSIFICATION_TYPE = U
NORAD_CAT_ID   = 67317
ELEMENT_SET_NO = 999
REV_AT_EPOCH   = 259
BSTAR          = -.3631E-2
MEAN_MOTION_DOT = -.1469254E-1
MEAN_MOTION_DDOT = .62997E-3

